start=new Date('2022-08-01T00:00:00.000Z').valueOf();
sats=[{"NORAD_CAT_ID":"53246","APOAPSIS":"333.473","SITE":"AFETR","PERIOD":"91.073","TIME_SYSTEM":"UTC","REV_AT_EPOCH":"130","TLE_LINE1":"1 53246U 22086E   22212.91667824 -.01214417  00000-0 -67985-2 0  9999","COUNTRY_CODE":"US","RCS_SIZE":null,"FILE":"3526413","PERIAPSIS":"320.950","ELEMENT_SET_NO":"999","RA_OF_ASC_NODE":"6.8979","EPHEMERIS_TYPE":"0","MEAN_ANOMALY":"303.5337","OBJECT_NAME":"STARLINK-4131","LAUNCH_DATE":"2022-07-24","BSTAR":"-0.00679850000000","MEAN_MOTION_DOT":"-0.01214417","MEAN_MOTION":"15.81142174","MEAN_MOTION_DDOT":"0.0000000000000","OBJECT_TYPE":"PAYLOAD","CENTER_NAME":"EARTH","INCLINATION":"53.2171","DECAY_DATE":null,"ARG_OF_PERICENTER":"49.6430","REF_FRAME":"TEME","MEAN_ELEMENT_THEORY":"SGP4","OBJECT_ID":"2022-086E","EPOCH":"2022-07-31T22:00:00.999936","GP_ID":"209298720","CLASSIFICATION_TYPE":"U","SEMIMAJOR_AXIS":"6705.347","TLE_LINE2":"2 53246  53.2171   6.8979 0009338  49.6430 303.5337 15.81142174  1301","ECCENTRICITY":"0.00093380"},{"FILE":"3526413","COUNTRY_CODE":"US","RCS_SIZE":null,"TLE_LINE1":"1 53247U 22086F   22212.91667824 -.01213848  00000-0 -67749-2 0  9995","ELEMENT_SET_NO":"999","PERIAPSIS":"320.517","TIME_SYSTEM":"UTC","PERIOD":"91.070","SITE":"AFETR","APOAPSIS":"333.608","NORAD_CAT_ID":"53247","REV_AT_EPOCH":"130","MEAN_MOTION_DDOT":"0.0000000000000","MEAN_MOTION":"15.81195001","LAUNCH_DATE":"2022-07-24","BSTAR":"-0.00677490000000","MEAN_ANOMALY":"304.3519","OBJECT_NAME":"STARLINK-4061","EPHEMERIS_TYPE":"0","RA_OF_ASC_NODE":"6.8961","MEAN_MOTION_DOT":"-0.01213848","DECAY_DATE":null,"INCLINATION":"53.2171","CENTER_NAME":"EARTH","MEAN_ELEMENT_THEORY":"SGP4","REF_FRAME":"TEME","ARG_OF_PERICENTER":"50.0336","OBJECT_TYPE":"PAYLOAD","ECCENTRICITY":"0.00097620","SEMIMAJOR_AXIS":"6705.197","TLE_LINE2":"2 53247  53.2171   6.8961 0009762  50.0336 304.3519 15.81195001  1303","OBJECT_ID":"2022-086F","EPOCH":"2022-07-31T22:00:00.999936","GP_ID":"209298843","CLASSIFICATION_TYPE":"U"},{"MEAN_MOTION_DDOT":"0.0000000000000","MEAN_MOTION":"15.81212441","BSTAR":"-0.00677260000000","LAUNCH_DATE":"2022-07-24","MEAN_ANOMALY":"307.3004","OBJECT_NAME":"STARLINK-4135","EPHEMERIS_TYPE":"0","RA_OF_ASC_NODE":"6.8947","MEAN_MOTION_DOT":"-0.01213240","FILE":"3526413","RCS_SIZE":null,"COUNTRY_CODE":"US","TLE_LINE1":"1 53248U 22086G   22212.91667824 -.01213240  00000-0 -67726-2 0  9997","ELEMENT_SET_NO":"999","PERIAPSIS":"321.101","TIME_SYSTEM":"UTC","PERIOD":"91.069","APOAPSIS":"332.925","SITE":"AFETR","NORAD_CAT_ID":"53248","REV_AT_EPOCH":"130","ECCENTRICITY":"0.00088170","TLE_LINE2":"2 53248  53.2171   6.8947 0008817  47.4895 307.3004 15.81212441  1308","SEMIMAJOR_AXIS":"6705.148","OBJECT_ID":"2022-086G","GP_ID":"209298593","EPOCH":"2022-07-31T22:00:00.999936","CLASSIFICATION_TYPE":"U","DECAY_DATE":null,"INCLINATION":"53.2171","CENTER_NAME":"EARTH","MEAN_ELEMENT_THEORY":"SGP4","REF_FRAME":"TEME","ARG_OF_PERICENTER":"47.4895","OBJECT_TYPE":"PAYLOAD"},{"PERIAPSIS":"321.025","ELEMENT_SET_NO":"999","TLE_LINE1":"1 53249U 22086H   22212.91667824 -.01212760  00000-0 -67534-2 0  9991","COUNTRY_CODE":"US","RCS_SIZE":null,"FILE":"3526413","REV_AT_EPOCH":"130","NORAD_CAT_ID":"53249","APOAPSIS":"332.698","SITE":"AFETR","PERIOD":"91.066","TIME_SYSTEM":"UTC","MEAN_MOTION":"15.81266059","MEAN_MOTION_DDOT":"0.0000000000000","MEAN_MOTION_DOT":"-0.01212760","EPHEMERIS_TYPE":"0","RA_OF_ASC_NODE":"6.8930","MEAN_ANOMALY":"308.2371","OBJECT_NAME":"STARLINK-4128","BSTAR":"-0.00675340000000","LAUNCH_DATE":"2022-07-24","ARG_OF_PERICENTER":"47.7499","REF_FRAME":"TEME","MEAN_ELEMENT_THEORY":"SGP4","CENTER_NAME":"EARTH","INCLINATION":"53.2171","DECAY_DATE":null,"OBJECT_TYPE":"PAYLOAD","SEMIMAJOR_AXIS":"6704.996","TLE_LINE2":"2 53249  53.2171   6.8930 0008705  47.7499 308.2371 15.81266059  1301","ECCENTRICITY":"0.00087050","CLASSIFICATION_TYPE":"U","GP_ID":"209299481","EPOCH":"2022-07-31T22:00:00.999936","OBJECT_ID":"2022-086H"},{"EPHEMERIS_TYPE":"0","RA_OF_ASC_NODE":"6.8939","OBJECT_NAME":"STARLINK-4059","MEAN_ANOMALY":"309.9739","LAUNCH_DATE":"2022-07-24","BSTAR":"-0.00676990000000","MEAN_MOTION_DOT":"-0.01212777","MEAN_MOTION":"15.81229134","MEAN_MOTION_DDOT":"0.0000000000000","NORAD_CAT_ID":"53250","APOAPSIS":"332.352","SITE":"AFETR","PERIOD":"91.068","TIME_SYSTEM":"UTC","REV_AT_EPOCH":"130","TLE_LINE1":"1 53250U 22086J   22212.91667824 -.01212777  00000-0 -67699-2 0  9993","RCS_SIZE":null,"COUNTRY_CODE":"US","FILE":"3526413","PERIAPSIS":"321.579","ELEMENT_SET_NO":"999","OBJECT_ID":"2022-086J","EPOCH":"2022-07-31T22:00:00.999936","GP_ID":"209299104","CLASSIFICATION_TYPE":"U","TLE_LINE2":"2 53250  53.2171   6.8939 0008033  45.2285 309.9739 15.81229134  1301","SEMIMAJOR_AXIS":"6705.101","ECCENTRICITY":"0.00080330","OBJECT_TYPE":"PAYLOAD","CENTER_NAME":"EARTH","INCLINATION":"53.2171","DECAY_DATE":null,"ARG_OF_PERICENTER":"45.2285","REF_FRAME":"TEME","MEAN_ELEMENT_THEORY":"SGP4"},{"ARG_OF_PERICENTER":"48.4459","MEAN_ELEMENT_THEORY":"SGP4","REF_FRAME":"TEME","INCLINATION":"53.2171","CENTER_NAME":"EARTH","DECAY_DATE":null,"OBJECT_TYPE":"PAYLOAD","TLE_LINE2":"2 53251  53.2171   6.8915 0008964  48.4459 308.3404 15.81301425  1303","SEMIMAJOR_AXIS":"6704.896","ECCENTRICITY":"0.00089640","GP_ID":"209299226","CLASSIFICATION_TYPE":"U","EPOCH":"2022-07-31T22:00:00.999936","OBJECT_ID":"2022-086K","PERIAPSIS":"320.751","ELEMENT_SET_NO":"999","TLE_LINE1":"1 53251U 22086K   22212.91667824 -.01212465  00000-0 -67385-2 0  9990","FILE":"3526413","RCS_SIZE":null,"COUNTRY_CODE":"US","REV_AT_EPOCH":"130","SITE":"AFETR","APOAPSIS":"332.772","NORAD_CAT_ID":"53251","TIME_SYSTEM":"UTC","PERIOD":"91.064","MEAN_MOTION":"15.81301425","MEAN_MOTION_DDOT":"0.0000000000000","MEAN_MOTION_DOT":"-0.01212465","RA_OF_ASC_NODE":"6.8915","EPHEMERIS_TYPE":"0","LAUNCH_DATE":"2022-07-24","BSTAR":"-0.00673850000000","OBJECT_NAME":"STARLINK-4129","MEAN_ANOMALY":"308.3404"},{"COUNTRY_CODE":"US","RCS_SIZE":null,"FILE":"3526413","TLE_LINE1":"1 53252U 22086L   22212.91667824 -.01212877  00000-0 -67628-2 0  9998","ELEMENT_SET_NO":"999","PERIAPSIS":"321.368","PERIOD":"91.067","TIME_SYSTEM":"UTC","NORAD_CAT_ID":"53252","APOAPSIS":"332.454","SITE":"AFETR","REV_AT_EPOCH":"130","MEAN_MOTION_DDOT":"0.0000000000000","MEAN_MOTION":"15.81248435","MEAN_ANOMALY":"308.7154","OBJECT_NAME":"STARLINK-4132","LAUNCH_DATE":"2022-07-24","BSTAR":"-0.00676280000000","RA_OF_ASC_NODE":"6.8932","EPHEMERIS_TYPE":"0","MEAN_MOTION_DOT":"-0.01212877","DECAY_DATE":null,"CENTER_NAME":"EARTH","INCLINATION":"53.2171","REF_FRAME":"TEME","MEAN_ELEMENT_THEORY":"SGP4","ARG_OF_PERICENTER":"46.8714","OBJECT_TYPE":"PAYLOAD","ECCENTRICITY":"0.00082670","TLE_LINE2":"2 53252  53.2171   6.8932 0008267  46.8714 308.7154 15.81248435  1302","SEMIMAJOR_AXIS":"6705.046","OBJECT_ID":"2022-086L","CLASSIFICATION_TYPE":"U","GP_ID":"209298978","EPOCH":"2022-07-31T22:00:00.999936"},{"MEAN_MOTION_DDOT":"0.0000000000000","MEAN_MOTION":"15.81318755","MEAN_ANOMALY":"306.1467","OBJECT_NAME":"STARLINK-4133","LAUNCH_DATE":"2022-07-24","BSTAR":"-0.00672820000000","EPHEMERIS_TYPE":"0","RA_OF_ASC_NODE":"6.8907","MEAN_MOTION_DOT":"-0.01212735","RCS_SIZE":null,"COUNTRY_CODE":"US","FILE":"3526413","TLE_LINE1":"1 53253U 22086M   22212.91667824 -.01212735  00000-0 -67282-2 0  9998","ELEMENT_SET_NO":"999","PERIAPSIS":"320.119","PERIOD":"91.063","TIME_SYSTEM":"UTC","NORAD_CAT_ID":"53253","APOAPSIS":"333.306","SITE":"AFETR","REV_AT_EPOCH":"130","ECCENTRICITY":"0.00098340","SEMIMAJOR_AXIS":"6704.847","TLE_LINE2":"2 53253  53.2171   6.8907 0009834  51.0430 306.1467 15.81318755  1301","OBJECT_ID":"2022-086M","GP_ID":"209299354","CLASSIFICATION_TYPE":"U","EPOCH":"2022-07-31T22:00:00.999936","DECAY_DATE":null,"CENTER_NAME":"EARTH","INCLINATION":"53.2171","REF_FRAME":"TEME","MEAN_ELEMENT_THEORY":"SGP4","ARG_OF_PERICENTER":"51.0430","OBJECT_TYPE":"PAYLOAD"},{"MEAN_MOTION_DOT":"-0.01212735","MEAN_ANOMALY":"307.6121","OBJECT_NAME":"STARLINK-4134","BSTAR":"-0.00674530000000","LAUNCH_DATE":"2022-07-24","EPHEMERIS_TYPE":"0","RA_OF_ASC_NODE":"6.8917","MEAN_MOTION_DDOT":"0.0000000000000","MEAN_MOTION":"15.81284109","REV_AT_EPOCH":"130","PERIOD":"91.065","TIME_SYSTEM":"UTC","NORAD_CAT_ID":"53254","SITE":"AFETR","APOAPSIS":"332.854","ELEMENT_SET_NO":"999","PERIAPSIS":"320.766","COUNTRY_CODE":"US","RCS_SIZE":null,"FILE":"3526413","TLE_LINE1":"1 53254U 22086N   22212.91667824 -.01212735  00000-0 -67453-2 0  9999","GP_ID":"209298721","CLASSIFICATION_TYPE":"U","EPOCH":"2022-07-31T22:00:00.999936","OBJECT_ID":"2022-086N","ECCENTRICITY":"0.00090140","TLE_LINE2":"2 53254  53.2171   6.8917 0009014  48.7709 307.6121 15.81284109  1303","SEMIMAJOR_AXIS":"6704.945","OBJECT_TYPE":"PAYLOAD","REF_FRAME":"TEME","MEAN_ELEMENT_THEORY":"SGP4","ARG_OF_PERICENTER":"48.7709","DECAY_DATE":null,"CENTER_NAME":"EARTH","INCLINATION":"53.2171"},{"OBJECT_TYPE":"PAYLOAD","REF_FRAME":"TEME","MEAN_ELEMENT_THEORY":"SGP4","ARG_OF_PERICENTER":"50.1341","DECAY_DATE":null,"CENTER_NAME":"EARTH","INCLINATION":"53.2171","CLASSIFICATION_TYPE":"U","GP_ID":"209298844","EPOCH":"2022-07-31T22:00:00.999936","OBJECT_ID":"2022-086P","ECCENTRICITY":"0.00095680","TLE_LINE2":"2 53255  53.2171   6.8891 0009568  50.1341 307.8637 15.81353061  1306","SEMIMAJOR_AXIS":"6704.750","REV_AT_EPOCH":"130","PERIOD":"91.061","TIME_SYSTEM":"UTC","NORAD_CAT_ID":"53255","APOAPSIS":"333.030","SITE":"AFETR","ELEMENT_SET_NO":"999","PERIAPSIS":"320.200","RCS_SIZE":null,"COUNTRY_CODE":"US","FILE":"3526413","TLE_LINE1":"1 53255U 22086P   22212.91667824 -.01212157  00000-0 -67158-2 0  9990","MEAN_MOTION_DOT":"-0.01212157","OBJECT_NAME":"STARLINK-4142","MEAN_ANOMALY":"307.8637","LAUNCH_DATE":"2022-07-24","BSTAR":"-0.00671580000000","RA_OF_ASC_NODE":"6.8891","EPHEMERIS_TYPE":"0","MEAN_MOTION_DDOT":"0.0000000000000","MEAN_MOTION":"15.81353061"}];
